{"fetched_at":"2026-07-20T18:29:38.415Z","source":"https://celestrak.org/NORAD/elements/gp.php?NAME=PLEIADES&FORMAT=JSON","constellation":"pleiades","records":[{"OBJECT_NAME":"PLEIADES 1A","OBJECT_ID":"2011-076F","EPOCH":"2026-07-20T06:17:50.940960","CLASSIFICATION_TYPE":"U","MEAN_MOTION":14.58547755,"ECCENTRICITY":0.0001599,"INCLINATION":98.1961,"RA_OF_ASC_NODE":275.9189,"ARG_OF_PERICENTER":77.8566,"MEAN_ANOMALY":353.943,"EPHEMERIS_TYPE":0,"NORAD_CAT_ID":38012,"ELEMENT_SET_NO":999,"REV_AT_EPOCH":77681,"BSTAR":-0.000014852915,"MEAN_MOTION_DOT":-0.00000115,"MEAN_MOTION_DDOT":0},{"OBJECT_NAME":"PLEIADES 1B","OBJECT_ID":"2012-068A","EPOCH":"2026-07-20T06:47:09.588768","CLASSIFICATION_TYPE":"U","MEAN_MOTION":14.58535581,"ECCENTRICITY":0.00014624,"INCLINATION":98.1931,"RA_OF_ASC_NODE":275.8764,"ARG_OF_PERICENTER":79.1049,"MEAN_ANOMALY":281.0315,"EPHEMERIS_TYPE":0,"NORAD_CAT_ID":39019,"ELEMENT_SET_NO":999,"REV_AT_EPOCH":72567,"BSTAR":0.000007360566,"MEAN_MOTION_DOT":-1.1e-7,"MEAN_MOTION_DDOT":0}]}
